H1 CPF 01  gfz 2022 03 21 01  5801 terrasarx 
H2 0702601  6201 31698    2022 03 21 00 59 42 2022 03 26 00 00 42   120 1 1  0 0 0
H9
10 0 59661  46062.000000  0     739557.387   5892590.244  -3499628.982
10 0 59661  46182.000000  0     980433.811   6268090.010  -2693964.270
10 0 59661  46302.000000  0    1209798.646   6530202.652  -1841005.219
10 0 59661  46422.000000  0    1421610.858   6674510.555   -955698.386
10 0 59661  46542.000000  0    1610074.170   6698765.945    -53588.119
10 0 59661  46662.000000  0    1769779.893   6602932.676    849462.764
10 0 59661  46782.000000  0    1895842.434   6389183.897   1737559.283
10 0 59661  46902.000000  0    1984025.200   6061856.060   2595062.088
10 0 59661  47022.000000  0    2030853.315   5627359.827   3406870.586
10 0 59661  47142.000000  0    2033710.138   5094050.313   4158696.435
10 0 59661  47262.000000  0    1990914.215   4472058.442   4837320.506
10 0 59661  47382.000000  0    1901776.158   3773086.919   5430827.599
10 0 59661  47502.000000  0    1766632.994   3010180.345   5928811.151
10 0 59661  47622.000000  0    1586861.606   2197475.798   6322551.467
10 0 59661  47742.000000  0    1364869.361   1349934.968   6605163.699
10 0 59661  47862.000000  0    1104062.772    483064.332   6771711.475
10 0 59661  47982.000000  0     808795.101   -387368.637   6819286.666
10 0 59661  48102.000000  0     484293.613  -1245621.084   6747058.593
10 0 59661  48222.000000  0     136566.835  -2076259.817   6556288.087
10 0 59661  48342.000000  0    -227706.757  -2864438.859   6250306.846
10 0 59661  48462.000000  0    -601305.915  -3596166.233   5834461.260
10 0 59661  48582.000000  0    -976606.764  -4258552.774   5316022.705
10 0 59661  48702.000000  0   -1345735.208  -4840042.442   4704068.737
10 0 59661  48822.000000  0   -1700730.678  -5330622.497   4009332.077
10 0 59661  48942.000000  0   -2033715.992  -5722006.320   3244015.734
10 0 59661  49062.000000  0   -2337069.794  -6007782.192   2421578.836
10 0 59661  49182.000000  0   -2603597.427  -6183525.542   1556498.123
10 0 59661  49302.000000  0   -2826695.595  -6246872.936    664008.453
10 0 59661  49422.000000  0   -3000507.010  -6197555.017   -240172.533
10 0 59661  49542.000000  0   -3120060.982  -6037387.261  -1140129.730
10 0 59661  49662.000000  0   -3181396.548  -5770218.376  -2020039.725
10 0 59661  49782.000000  0   -3181665.020  -5401837.720  -2864456.971
10 0 59661  49902.000000  0   -3119209.137  -4939844.376  -3658590.927
10 0 59661  50022.000000  0   -2993616.526  -4393481.567  -4388567.152
10 0 59661  50142.000000  0   -2805747.286  -3773442.698  -5041667.141
10 0 59661  50262.000000  0   -2557736.127  -3091654.051  -5606543.959
10 0 59661  50382.000000  0   -2252969.509  -2361039.115  -6073410.753
10 0 59661  50502.000000  0   -1896037.675  -1595269.802  -6434200.294
10 0 59661  50622.000000  0   -1492662.775   -808509.276  -6682692.937
10 0 59661  50742.000000  0   -1049606.235    -15152.029  -6814612.183
10 0 59661  50862.000000  0    -574556.691    770434.055  -6827689.521
10 0 59661  50982.000000  0     -75998.738   1534161.164  -6721699.246
10 0 59661  51102.000000  0     436933.940   2262467.329  -6498461.823
10 0 59661  51222.000000  0     954621.363   2942552.404  -6161818.322
10 0 59661  51342.000000  0    1467134.275   3562600.987  -5717571.310
10 0 59661  51462.000000  0    1964420.183   4111987.417  -5173394.010
10 0 59661  51582.000000  0    2436497.725   4581460.796  -4538709.638
10 0 59661  51702.000000  0    2873655.529   4963307.565  -3824539.118
10 0 59661  51822.000000  0    3266651.141   5251486.476  -3043318.622
10 0 59661  51942.000000  0    3606907.158   5441733.695  -2208689.780
10 0 59661  52062.000000  0    3886699.142   5531633.891  -1335263.875
10 0 59661  52182.000000  0    4099330.067   5520655.887   -438364.979
10 0 59661  52302.000000  0    4239286.886   5410150.766    466243.829
10 0 59661  52422.000000  0    4302375.160   5203311.166   1362644.858
10 0 59661  52542.000000  0    4285826.804   4905093.123   2235053.162
10 0 59661  52662.000000  0    4188381.343   4522105.293   3068103.101
10 0 59661  52782.000000  0    4010334.214   4062461.920   3847128.596
10 0 59661  52902.000000  0    3753552.782   3535607.560   4558425.359
10 0 59661  53022.000000  0    3421462.723   2952119.034   5189494.532
10 0 59661  53142.000000  0    3018999.386   2323487.448   5729264.302
10 0 59661  53262.000000  0    2552529.838   1661886.108   6168278.149
10 0 59661  53382.000000  0    2029748.993    979931.147   6498855.351
10 0 59661  53502.000000  0    1459548.945    290438.632   6715218.668
10 0 59661  53622.000000  0     851865.209   -393815.210   6813589.649
10 0 59661  53742.000000  0     217502.606  -1060330.476   6792251.883
10 0 59661  53862.000000  0    -432057.224  -1697112.075   6651578.709
10 0 59661  53982.000000  0   -1084863.604  -2292885.463   6394026.429
10 0 59661  54102.000000  0   -1728715.436  -2837296.148   6024092.471
10 0 59661  54222.000000  0   -2351386.648  -3321090.147   5548242.344
10 0 59661  54342.000000  0   -2940859.081  -3736275.076   4974804.932
10 0 59661  54462.000000  0   -3485558.861  -4076257.286   4313832.849
10 0 59661  54582.000000  0   -3974587.685  -4335950.959   3576929.511
10 0 59661  54702.000000  0   -4397944.278  -4511858.003   2777047.609
10 0 59661  54822.000000  0   -4746732.796  -4602117.412   1928262.035
10 0 59661  54942.000000  0   -5013353.400  -4606521.744   1045518.643
10 0 59661  55062.000000  0   -5191668.763  -4526499.209    144364.987
10 0 59661  55182.000000  0   -5277142.798  -4365062.464   -759331.444
10 0 59661  55302.000000  0   -5266947.687  -4126725.146  -1649672.109
10 0 59661  55422.000000  0   -5160035.417  -3817387.166  -2511016.748
10 0 59661  55542.000000  0   -4957172.080  -3444192.722  -3328264.476
10 0 59661  55662.000000  0   -4660936.055  -3015366.228  -4087121.297
10 0 59661  55782.000000  0   -4275680.888  -2540030.180  -4774349.751
10 0 59661  55902.000000  0   -3807463.359  -2028009.301  -5377995.821
10 0 59661  56022.000000  0   -3263939.818  -1489626.235  -5887589.389
10 0 59661  56142.000000  0   -2654233.830   -935492.941  -6294315.906
10 0 59661  56262.000000  0   -1988777.662   -376302.585  -6591157.780
10 0 59661  56382.000000  0   -1279130.534    177373.862  -6773003.521
10 0 59661  56502.000000  0    -537779.386    715282.298  -6836725.018
10 0 59661  56622.000000  0     222076.331   1227670.503  -6781225.675
10 0 59661  56742.000000  0     986753.022   1705459.760  -6607457.323
10 0 59661  56862.000000  0    1742323.891   2140402.418  -6318408.106
10 0 59661  56982.000000  0    2474867.631   2525222.768  -5919056.328
10 0 59661  57102.000000  0    3170721.464   2853738.682  -5416293.078
10 0 59661  57222.000000  0    3816733.140   3120961.808  -4818814.002
10 0 59661  57342.000000  0    4400511.305   3323176.569  -4136981.268
10 0 59661  57462.000000  0    4910668.115   3457994.467  -3382653.681
10 0 59661  57582.000000  0    5337047.470   3524382.143  -2568987.509
10 0 59661  57702.000000  0    5670934.570   3522663.756  -1710211.909
10 0 59661  57822.000000  0    5905242.134   3454495.217   -821380.165
10 0 59661  57942.000000  0    6034666.565   3322810.594     81897.134
10 0 59661  58062.000000  0    6055811.264   3131741.972    983732.096
10 0 59661  58182.000000  0    5967272.144   2886514.149   1868247.106
10 0 59661  58302.000000  0    5769682.510   2593317.998   2719862.844
10 0 59661  58422.000000  0    5465717.649   2259164.438   3523581.733
10 0 59661  58542.000000  0    5060056.544   1891722.531   4265259.189
10 0 59661  58662.000000  0    4559302.900   1499146.969   4931855.987
10 0 59661  58782.000000  0    3971871.110   1089898.964   5511667.029
10 0 59661  58902.000000  0    3307836.143    672565.064   5994527.127
10 0 59661  59022.000000  0    2578750.662    255677.745   6371983.192
10 0 59661  59142.000000  0    1797438.955   -152456.793   6637434.916
10 0 59661  59262.000000  0     977768.473   -543922.498   6786245.413
10 0 59661  59382.000000  0     134400.783   -911346.254   6815818.104
10 0 59661  59502.000000  0    -717471.384  -1248035.843   6725638.092
10 0 59661  59622.000000  0   -1562397.139  -1548101.834   6517279.796
10 0 59661  59742.000000  0   -2384946.062  -1806560.368   6194379.850
10 0 59661  59862.000000  0   -3169987.862  -2019415.294   5762578.749
10 0 59661  59982.000000  0   -3902973.610  -2183721.181   5229430.924
10 0 59661  60102.000000  0   -4570210.841  -2297624.590   4604277.707
10 0 59661  60222.000000  0   -5159125.598  -2360381.852   3898087.874
10 0 59661  60342.000000  0   -5658506.345  -2372352.477   3123268.082
10 0 59661  60462.000000  0   -6058725.458  -2334969.305   2293446.865
10 0 59661  60582.000000  0   -6351934.346  -2250686.952   1423234.162
10 0 59661  60702.000000  0   -6532225.614  -2122907.716    527957.640
10 0 59661  60822.000000  0   -6595755.272  -1955886.408   -376614.826
10 0 59661  60942.000000  0   -6540825.404  -1754617.161  -1274561.960
10 0 59661  61062.000000  0   -6367921.876  -1524705.296  -2150098.691
10 0 59661  61182.000000  0   -6079707.919  -1272227.904  -2987860.844
10 0 59661  61302.000000  0   -5680974.568  -1003586.797  -3773179.361
10 0 59661  61422.000000  0   -5178549.974   -725357.138  -4492338.662
10 0 59661  61542.000000  0   -4581170.221   -444135.456  -5132814.074
10 0 59661  61662.000000  0   -3899315.053   -166391.442  -5683484.138
10 0 59661  61782.000000  0   -3145013.089    101673.459  -6134814.346
10 0 59661  61902.000000  0   -2331622.544    354257.721  -6479010.049
10 0 59661  62022.000000  0   -1473591.964    586078.515  -6710139.551
10 0 59661  62142.000000  0    -586204.091    792476.369  -6824225.972
10 0 59661  62262.000000  0     314691.615    969505.160  -6819306.989
10 0 59661  62382.000000  0    1212953.916   1114004.294  -6695465.298
10 0 59661  62502.000000  0    2092432.817   1223653.803  -6454829.952
99
